{
    "links": {
        "self": "http://www.neowsapp.com/rest/v1/neo/3699896?api_key=iIulBulltgU6a56xZRHN4H3l9WmuAYTsLGpBGhQ2"
    },
    "id": "3699896",
    "neo_reference_id": "3699896",
    "name": "(2014 WD366)",
    "designation": "2014 WD366",
    "nasa_jpl_url": "http://ssd.jpl.nasa.gov/sbdb.cgi?sstr=3699896",
    "absolute_magnitude_h": 27.4,
    "estimated_diameter": {
        "kilometers": {
            "estimated_diameter_min": 0.0088014652,
            "estimated_diameter_max": 0.0196806745
        },
        "meters": {
            "estimated_diameter_min": 8.801465209,
            "estimated_diameter_max": 19.6806745089
        },
        "miles": {
            "estimated_diameter_min": 0.0054689752,
            "estimated_diameter_max": 0.0122290004
        },
        "feet": {
            "estimated_diameter_min": 28.8761991163,
            "estimated_diameter_max": 64.5691441559
        }
    },
    "is_potentially_hazardous_asteroid": false,
    "close_approach_data": [
        {
            "close_approach_date": "2014-12-01",
            "close_approach_date_full": "2014-Dec-01 00:37",
            "epoch_date_close_approach": 1417394220000,
            "relative_velocity": {
                "kilometers_per_second": "7.3726248223",
                "kilometers_per_hour": "26541.4493603618",
                "miles_per_hour": "16491.8244650537"
            },
            "miss_distance": {
                "astronomical": "0.0212318363",
                "lunar": "8.2591843207",
                "kilometers": "3176237.486668681",
                "miles": "1973622.4561265578"
            },
            "orbiting_body": "Earth"
        }
    ],
    "orbital_data": {
        "orbit_id": "3",
        "orbit_determination_date": "2017-04-06 08:37:01",
        "first_observation_date": "2014-11-29",
        "last_observation_date": "2014-11-30",
        "data_arc_in_days": 1,
        "observations_used": 32,
        "orbit_uncertainty": "8",
        "minimum_orbit_intersection": ".0209023",
        "jupiter_tisserand_invariant": "3.762",
        "epoch_osculation": "2456991.5",
        "eccentricity": ".4775926091651859",
        "semi_major_axis": "1.925549321247862",
        "inclination": "7.645907749312189",
        "ascending_node_longitude": "68.64818127613738",
        "orbital_period": "975.9563578729218",
        "perihelion_distance": "1.005921196836843",
        "perihelion_argument": "5.06798093558232",
        "aphelion_distance": "2.845177445658881",
        "perihelion_time": "2456996.755187766136",
        "mean_anomaly": "358.0615243903608",
        "mean_motion": ".3688689531001295",
        "equinox": "J2000",
        "orbit_class": {
            "orbit_class_type": "APO",
            "orbit_class_description": "Near-Earth asteroid orbits which cross the Earth’s orbit similar to that of 1862 Apollo",
            "orbit_class_range": "a (semi-major axis) > 1.0 AU; q (perihelion) < 1.017 AU"
        }
    },
    "is_sentry_object": false
}